[{"OBJECT_NAME":"STARLINK-5814","OBJECT_ID":"2023-028AN","EPOCH":"2026-03-09T19:22:08.249088","MEAN_MOTION":14.98320558,"ECCENTRICITY":0.00031689,"INCLINATION":69.9999,"RA_OF_ASC_NODE":224.0382,"ARG_OF_PERICENTER":271.9148,"MEAN_ANOMALY":88.1648,"EPHEMERIS_TYPE":0,"CLASSIFICATION_TYPE":"U","NORAD_CAT_ID":55777,"ELEMENT_SET_NO":999,"REV_AT_EPOCH":16655,"BSTAR":-0.00024330093,"MEAN_MOTION_DOT":-2.994e-5,"MEAN_MOTION_DDOT":0},{"OBJECT_NAME":"UNKNOWN","OBJECT_ID":"","EPOCH":"2026-03-08T11:45:51.038784","MEAN_MOTION":14.85715368,"ECCENTRICITY":0.0087365,"INCLINATION":97.6779,"RA_OF_ASC_NODE":256.4518,"ARG_OF_PERICENTER":23.5839,"MEAN_ANOMALY":6.4538,"EPHEMERIS_TYPE":0,"CLASSIFICATION_TYPE":"U","NORAD_CAT_ID":81845,"ELEMENT_SET_NO":999,"REV_AT_EPOCH":66225,"BSTAR":0.00036382,"MEAN_MOTION_DOT":3.326e-5,"MEAN_MOTION_DDOT":0}]
